[{"OBJECT_NAME":"OBJECT E","OBJECT_ID":"2024-174E","EPOCH":"2026-03-09T23:40:24.424320","MEAN_MOTION":15.26241811,"ECCENTRICITY":0.00122518,"INCLINATION":97.4515,"RA_OF_ASC_NODE":80.1669,"ARG_OF_PERICENTER":217.7524,"MEAN_ANOMALY":142.2856,"EPHEMERIS_TYPE":0,"CLASSIFICATION_TYPE":"U","NORAD_CAT_ID":61242,"ELEMENT_SET_NO":999,"REV_AT_EPOCH":8070,"BSTAR":0.00031155901,"MEAN_MOTION_DOT":8.013e-5,"MEAN_MOTION_DDOT":0},{"OBJECT_NAME":"STARLINK-34015","OBJECT_ID":"2025-093U","EPOCH":"2026-03-09T16:00:03.000096","MEAN_MOTION":15.27584294,"ECCENTRICITY":0.00013024,"INCLINATION":43.0021,"RA_OF_ASC_NODE":78.3577,"ARG_OF_PERICENTER":259.967,"MEAN_ANOMALY":136.0451,"EPHEMERIS_TYPE":0,"CLASSIFICATION_TYPE":"U","NORAD_CAT_ID":63854,"ELEMENT_SET_NO":999,"REV_AT_EPOCH":567,"BSTAR":-0.00046418368,"MEAN_MOTION_DOT":-0.00013015,"MEAN_MOTION_DDOT":0}]
